{"type": "FeatureCollection", "features": [ {"type": "Feature", "properties": {"norad_id": 17070, "name": "POLAR BEAR", "group": "nnss", "lat": 33.59948585866642, "lon": -176.44721250124488, "alt_km": 959.6566749252561, "timestamp": "2025-12-24T14:43:29.270213+00:00", "meta": {"OBJECT_NAME": "POLAR BEAR", "OBJECT_ID": "1986-088A", "EPOCH": "2025-12-24T06:40:05.611008", "MEAN_MOTION": 13.75253086, "ECCENTRICITY": 0.00412897, "INCLINATION": 89.617, "RA_OF_ASC_NODE": 183.3117, "ARG_OF_PERICENTER": 86.0705, "MEAN_ANOMALY": 87.0296, "EPHEMERIS_TYPE": 0, "CLASSIFICATION_TYPE": "U", "NORAD_CAT_ID": 17070, "ELEMENT_SET_NO": 999, "REV_AT_EPOCH": 96137, "BSTAR": 9.0942479e-05, "MEAN_MOTION_DOT": 9.9e-07, "MEAN_MOTION_DDOT": 0}, "tle": {"line1": "1 17070U 86088A   25358.27784272  .00000099  00000+0  90942-4 0  9992", "line2": "2 17070  89.6170 183.3117 0041289  86.0705  87.0296 13.75253086961370"}}, "geometry": {"type": "Point", "coordinates": [-176.44721250124488, 33.59948585866642]}}, {"type": "Feature", "properties": {"norad_id": 18361, "name": "OSCAR 27", "group": "nnss", "lat": 75.11794259054165, "lon": 78.30906064670455, "alt_km": 1115.4864855743372, "timestamp": "2025-12-24T14:43:29.270223+00:00", "meta": {"OBJECT_NAME": "OSCAR 27", "OBJECT_ID": "1987-080A", "EPOCH": "2025-12-23T22:16:33.536352", "MEAN_MOTION": 13.44908878, "ECCENTRICITY": 0.0103856, "INCLINATION": 90.3737, "RA_OF_ASC_NODE": 79.6907, "ARG_OF_PERICENTER": 191.5852, "MEAN_ANOMALY": 168.2905, "EPHEMERIS_TYPE": 0, "CLASSIFICATION_TYPE": "U", "NORAD_CAT_ID": 18361, "ELEMENT_SET_NO": 999, "REV_AT_EPOCH": 87707, "BSTAR": 0.00016473, "MEAN_MOTION_DOT": 1.08e-06, "MEAN_MOTION_DDOT": 0}, "tle": {"line1": "1 18361U 87080A   25357.92816593  .00000108  00000+0  16473-3 0  9999", "line2": "2 18361  90.3737  79.6907 0103856 191.5852 168.2905 13.44908878877074"}}, "geometry": {"type": "Point", "coordinates": [78.30906064670455, 75.11794259054165]}}, {"type": "Feature", "properties": {"norad_id": 18362, "name": "OSCAR 29", "group": "nnss", "lat": 68.12340790450348, "lon": 79.24159972315529, "alt_km": 1149.7071196419638, "timestamp": "2025-12-24T14:43:29.270234+00:00", "meta": {"OBJECT_NAME": "OSCAR 29", "OBJECT_ID": "1987-080B", "EPOCH": "2025-12-23T11:38:40.001280", "MEAN_MOTION": 13.44450427, "ECCENTRICITY": 0.01046277, "INCLINATION": 90.375, "RA_OF_ASC_NODE": 80.1339, "ARG_OF_PERICENTER": 216.0464, "MEAN_ANOMALY": 154.8179, "EPHEMERIS_TYPE": 0, "CLASSIFICATION_TYPE": "U", "NORAD_CAT_ID": 18362, "ELEMENT_SET_NO": 999, "REV_AT_EPOCH": 87654, "BSTAR": 0.00017755719, "MEAN_MOTION_DOT": 1.15e-06, "MEAN_MOTION_DDOT": 0}, "tle": {"line1": "1 18362U 87080B   25357.48518520  .00000115  00000+0  17756-3 0  9993", "line2": "2 18362  90.3750  80.1339 0104627 216.0464 154.8179 13.44450427876542"}}, "geometry": {"type": "Point", "coordinates": [79.24159972315529, 68.12340790450348]}}, {"type": "Feature", "properties": {"norad_id": 19070, "name": "OSCAR 23", "group": "nnss", "lat": -35.0917452747914, "lon": -163.46485666739338, "alt_km": 1105.3296885332475, "timestamp": "2025-12-24T14:43:29.270244+00:00", "meta": {"OBJECT_NAME": "OSCAR 23", "OBJECT_ID": "1988-033A", "EPOCH": "2025-12-24T01:16:30.251424", "MEAN_MOTION": 13.27788942, "ECCENTRICITY": 0.01904233, "INCLINATION": 90.3203, "RA_OF_ASC_NODE": 16.7429, "ARG_OF_PERICENTER": 148.5361, "MEAN_ANOMALY": 267.2442, "EPHEMERIS_TYPE": 0, "CLASSIFICATION_TYPE": "U", "NORAD_CAT_ID": 19070, "ELEMENT_SET_NO": 999, "REV_AT_EPOCH": 82403, "BSTAR": 0.00014553194, "MEAN_MOTION_DOT": 8.2e-07, "MEAN_MOTION_DDOT": 0}, "tle": {"line1": "1 19070U 88033A   25358.05312791  .00000082  00000+0  14553-3 0  9990", "line2": "2 19070  90.3203  16.7429 0190423 148.5361 267.2442 13.27788942824037"}}, "geometry": {"type": "Point", "coordinates": [-163.46485666739338, -35.0917452747914]}}, {"type": "Feature", "properties": {"norad_id": 19071, "name": "OSCAR 32", "group": "nnss", "lat": -30.28829869562723, "lon": 17.080293838952343, "alt_km": 1297.315152455095, "timestamp": "2025-12-24T14:43:29.270254+00:00", "meta": {"OBJECT_NAME": "OSCAR 32", "OBJECT_ID": "1988-033B", "EPOCH": "2025-12-24T07:42:13.754592", "MEAN_MOTION": 13.27955652, "ECCENTRICITY": 0.01891926, "INCLINATION": 90.3208, "RA_OF_ASC_NODE": 16.8837, "ARG_OF_PERICENTER": 134.7211, "MEAN_ANOMALY": 237.9771, "EPHEMERIS_TYPE": 0, "CLASSIFICATION_TYPE": "U", "NORAD_CAT_ID": 19071, "ELEMENT_SET_NO": 999, "REV_AT_EPOCH": 82419, "BSTAR": 8.5937937e-05, "MEAN_MOTION_DOT": 5.3e-07, "MEAN_MOTION_DDOT": 0}, "tle": {"line1": "1 19071U 88033B   25358.32099253  .00000053  00000+0  85938-4 0  9990", "line2": "2 19071  90.3208  16.8837 0189192 134.7211 237.9771 13.27955652824199"}}, "geometry": {"type": "Point", "coordinates": [17.080293838952343, -30.28829869562723]}}, {"type": "Feature", "properties": {"norad_id": 19223, "name": "NOVA 2", "group": "nnss", "lat": -46.82049131416268, "lon": 78.24303400555331, "alt_km": 1161.1134549172875, "timestamp": "2025-12-24T14:43:29.270265+00:00", "meta": {"OBJECT_NAME": "NOVA 2", "OBJECT_ID": "1988-052A", "EPOCH": "2025-12-24T04:21:39.409632", "MEAN_MOTION": 13.22937071, "ECCENTRICITY": 0.00296053, "INCLINATION": 89.9864, "RA_OF_ASC_NODE": 78.2581, "ARG_OF_PERICENTER": 345.217, "MEAN_ANOMALY": 72.8014, "EPHEMERIS_TYPE": 0, "CLASSIFICATION_TYPE": "U", "NORAD_CAT_ID": 19223, "ELEMENT_SET_NO": 999, "REV_AT_EPOCH": 81099, "BSTAR": 0.00018842165, "MEAN_MOTION_DOT": 8.8e-07, "MEAN_MOTION_DDOT": 0}, "tle": {"line1": "1 19223U 88052A   25358.18170613  .00000088  00000+0  18842-3 0  9991", "line2": "2 19223  89.9864  78.2581 0029605 345.2170  72.8014 13.22937071810992"}}, "geometry": {"type": "Point", "coordinates": [78.24303400555331, -46.82049131416268]}}, {"type": "Feature", "properties": {"norad_id": 19419, "name": "OSCAR 25", "group": "nnss", "lat": 30.818064582705443, "lon": -159.69729332140298, "alt_km": 1064.4027450035355, "timestamp": "2025-12-24T14:43:29.270275+00:00", "meta": {"OBJECT_NAME": "OSCAR 25", "OBJECT_ID": "1988-074A", "EPOCH": "2025-12-24T03:35:44.716704", "MEAN_MOTION": 13.4262537, "ECCENTRICITY": 0.00951302, "INCLINATION": 90.0336, "RA_OF_ASC_NODE": 20.2811, "ARG_OF_PERICENTER": 212.8485, "MEAN_ANOMALY": 217.2062, "EPHEMERIS_TYPE": 0, "CLASSIFICATION_TYPE": "U", "NORAD_CAT_ID": 19419, "ELEMENT_SET_NO": 999, "REV_AT_EPOCH": 82793, "BSTAR": 0.00013049821, "MEAN_MOTION_DOT": 8.5e-07, "MEAN_MOTION_DDOT": 0}, "tle": {"line1": "1 19419U 88074A   25358.14982311  .00000085  00000+0  13050-3 0  9997", "line2": "2 19419  90.0336  20.2811 0095130 212.8485 217.2062 13.42625370827931"}}, "geometry": {"type": "Point", "coordinates": [-159.69729332140298, 30.818064582705443]}}, {"type": "Feature", "properties": {"norad_id": 19420, "name": "OSCAR 31", "group": "nnss", "lat": 31.954128390068266, "lon": 20.612423035642887, "alt_km": 1167.320580623098, "timestamp": "2025-12-24T14:43:29.270285+00:00", "meta": {"OBJECT_NAME": "OSCAR 31", "OBJECT_ID": "1988-074B", "EPOCH": "2025-12-24T02:20:50.517024", "MEAN_MOTION": 13.42586465, "ECCENTRICITY": 0.00935135, "INCLINATION": 90.0354, "RA_OF_ASC_NODE": 20.6327, "ARG_OF_PERICENTER": 207.1456, "MEAN_ANOMALY": 213.8261, "EPHEMERIS_TYPE": 0, "CLASSIFICATION_TYPE": "U", "NORAD_CAT_ID": 19420, "ELEMENT_SET_NO": 999, "REV_AT_EPOCH": 82803, "BSTAR": 0.00010999999, "MEAN_MOTION_DOT": 7.3e-07, "MEAN_MOTION_DDOT": 0}, "tle": {"line1": "1 19420U 88074B   25358.09780691  .00000073  00000+0  11000-3 0  9990", "line2": "2 19420  90.0354  20.6327 0093513 207.1456 213.8261 13.42586465828033"}}, "geometry": {"type": "Point", "coordinates": [20.612423035642887, 31.954128390068266]}}]}